OBJECT_NAME,OBJECT_ID,EPOCH,MEAN_MOTION,ECCENTRICITY,INCLINATION,RA_OF_ASC_NODE,ARG_OF_PERICENTER,MEAN_ANOMALY,EPHEMERIS_TYPE,CLASSIFICATION_TYPE,NORAD_CAT_ID,ELEMENT_SET_NO,REV_AT_EPOCH,BSTAR,MEAN_MOTION_DOT,MEAN_MOTION_DDOT
PROX-1,2019-036A,2026-07-17T07:23:05.589312,14.91272549,.00061727,23.9944,272.9393,31.4503,328.6365,0,U,44339,999,37797,.55563518E-3,.5956E-4,0
NPSAT1,2019-036B,2026-07-16T21:22:06.667680,14.74830092,.00074109,24.0002,24.2607,186.3938,173.6464,0,U,44340,999,37688,.36356872E-3,.274E-4,0
FORMOSAT 7-3,2019-036E,2026-07-16T18:56:50.961408,15.10001804,.00001641,23.9999,334.7700,296.6690,63.3797,0,U,44343,999,38772,.13058477E-3,.2523E-4,0
FORMOSAT 7-1,2019-036L,2026-07-17T06:00:50.978592,14.96616309,.00008735,23.9964,189.6959,150.7308,209.3242,0,U,44349,999,38916,.84746673E-4,.1292E-4,0
FORMOSAT 7-4,2019-036M,2026-07-17T06:33:22.995648,14.96613977,.00011325,23.9972,251.6550,164.6120,195.4415,0,U,44350,999,38858,.82482439E-4,.1266E-4,0
FORMOSAT 7-2,2019-036N,2026-07-16T13:29:29.868000,14.96612414,.0000666,23.9987,310.7640,140.8943,219.1606,0,U,44351,999,38799,.94229E-4,.1403E-4,0
FORMOSAT 7-6,2019-036Q,2026-07-17T03:52:58.085760,14.96616923,.00013478,23.9969,127.5270,92.7890,267.2765,0,U,44353,999,38631,.91400887E-4,.137E-4,0
FORMOSAT 7-5,2019-036V,2026-07-17T00:08:30.613632,14.96596138,.0000344,23.9991,67.3319,147.1551,212.8971,0,U,44358,999,38682,.96570339E-4,.1429E-4,0
METEOR-M2 2,2019-038A,2026-07-17T05:45:10.086912,14.24373699,.00006208,98.9159,185.9714,359.3522,0.7655,0,U,44387,999,36557,.12720131E-3,.248E-5,0
GLOBAL-4,2019-054E,2026-07-16T19:21:37.515744,15.67212279,.00056315,45.0056,65.1287,206.9473,153.1134,0,U,44499,999,38500,.36570833E-3,.40052E-3,0
ZY-1 02D,2019-059A,2026-07-17T07:45:39.582720,14.35268444,.00030604,98.6711,259.8891,290.9199,69.1659,0,U,44528,999,35866,-.1148061E-5,-.48E-6,0
TAURUS-1 (JINNIUZUO 1),2019-059C,2026-07-17T06:47:03.120000,14.72379930,.00081494,98.6437,4.9875,208.6660,151.4098,0,U,44530,999,36307,.48563784E-3,.3021E-4,0
ZHUHAI-1 03B,2019-060C,2026-07-17T05:40:36.624000,15.55713149,.00085848,97.5561,357.6674,198.0209,162.0742,0,U,44536,999,38099,.29759724E-3,.20426E-3,0
ZHUHAI-1 03D,2019-060E,2026-07-17T07:06:03.068640,15.51427699,.00076235,97.5404,349.5871,183.3662,176.7540,0,U,44538,999,38074,.34343547E-3,.20189E-3,0
ZHUHAI-1 03E,2019-060F,2026-07-17T07:08:57.814368,15.41964126,.00044119,97.5651,349.3160,265.8929,94.1813,0,U,44539,999,38040,.22896778E-3,.9661E-4,0
GAOFEN-7,2019-072A,2026-07-17T07:44:46.509792,15.20928793,.00170731,97.5701,259.0691,304.5421,55.4202,0,U,44703,999,37222,.92788794E-4,.1988E-4,0
JILIN-1 GAOFEN 2A,2019-075A,2026-07-17T06:58:04.454976,15.40046242,.00049745,97.4960,282.7993,346.4923,13.6188,0,U,44777,999,36951,.18513817E-3,.7313E-4,0
NINGXIA-1 1,2019-076A,2026-07-17T04:20:44.840256,14.02042219,.00114827,45.0068,45.8140,298.3270,61.6405,0,U,44779,999,34206,.28175501E-4,-.86E-6,0
NINGXIA-1 5,2019-076E,2026-07-17T06:21:00.465408,14.02089729,.00113635,45.0065,44.7725,289.4588,70.5018,0,U,44783,999,34199,.2047929E-5,-.127E-5,0
KL-ALPHA A,2019-077A,2026-07-17T07:11:15.192960,13.56045678,.00122314,88.9228,219.2713,31.4024,328.7858,0,U,44785,999,32981,-.86114964E-4,-.48E-6,0
CARTOSAT-3,2019-081A,2026-07-17T07:44:51.474336,15.19190512,.00128509,97.4288,259.7022,52.1802,308.0594,0,U,44804,999,36804,.64808304E-4,.1298E-4,0
JILIN-1 GAOFEN 2B,2019-086A,2026-07-17T06:44:18.312000,15.21012513,.00134202,97.4870,270.0873,208.0718,151.9796,0,U,44836,999,36506,.14237201E-3,.3094E-4,0
TIANQIN 1 (CAS-6),2019-093A,2026-07-17T06:21:31.320576,14.95568473,.00098824,97.7815,281.8894,320.7589,39.2914,0,U,44879,999,35654,.13722895E-3,.1465E-4,0
ETRSS-1,2019-093B,2026-07-17T06:18:34.263648,14.96017897,.00099579,97.7832,282.3734,320.8431,39.2069,0,U,44880,999,35655,.16877004E-3,.1836E-4,0
TIANYAN 01,2019-093C,2026-07-17T06:25:21.896256,14.86560049,.00134044,97.7521,269.7646,354.5747,5.5321,0,U,44881,999,35588,-.2465245E-5,-.75E-6,0
TIANYAN 02,2019-093D,2026-07-17T07:06:55.027872,15.05542110,.00123727,97.7934,293.3828,280.5661,79.4171,0,U,44882,999,35714,.20341334E-3,.2868E-4,0
CBERS 4A,2019-093E,2026-07-17T06:45:38.721024,14.81446213,.00015574,98.0180,265.7459,131.0079,229.1269,0,U,44883,999,35553,.70462876E-4,.498E-5,0
WEILAI 1R,2019-093F,2026-07-17T06:11:20.012064,15.00876650,.00153737,97.7893,288.1991,301.1675,58.8041,0,U,44884,999,35693,.18362769E-3,.2279E-4,0
