PROX-1                  
1 44339U 19036A   26198.30770358  .00005956  00000+0  55564-3 0  9993
2 44339  23.9944 272.9393 0006172  31.4503 328.6365 14.91272549377973
NPSAT1                  
1 44340U 19036B   26197.89035495  .00002740  00000+0  36357-3 0  9991
2 44340  24.0002  24.2607 0007410 186.3938 173.6464 14.74830092376887
FORMOSAT 7-3            
1 44343U 19036E   26197.78947872  .00002523  00000+0  13058-3 0  9995
2 44343  23.9999 334.7700 0000164 296.6690  63.3797 15.10001804387726
FORMOSAT 7-1            
1 44349U 19036L   26198.25059003  .00001292  00000+0  84747-4 0  9990
2 44349  23.9964 189.6959 0000873 150.7308 209.3242 14.96616309389162
FORMOSAT 7-4            
1 44350U 19036M   26198.27318282  .00001266  00000+0  82482-4 0  9996
2 44350  23.9972 251.6550 0001132 164.6120 195.4415 14.96613977388585
FORMOSAT 7-2            
1 44351U 19036N   26197.56215125  .00001403  00000+0  94229-4 0  9995
2 44351  23.9987 310.7640 0000666 140.8943 219.1606 14.96612414387994
FORMOSAT 7-6            
1 44353U 19036Q   26198.16178340  .00001370  00000+0  91401-4 0  9993
2 44353  23.9969 127.5270 0001347  92.7890 267.2765 14.96616923386316
FORMOSAT 7-5            
1 44358U 19036V   26198.00590988  .00001429  00000+0  96570-4 0  9994
2 44358  23.9991  67.3319 0000344 147.1551 212.8971 14.96596138386822
METEOR-M2 2             
1 44387U 19038A   26198.23970008  .00000248  00000+0  12720-3 0  9990
2 44387  98.9159 185.9714 0000620 359.3522   0.7655 14.24373699365578
GLOBAL-4                
1 44499U 19054E   26197.80668421  .00040052  00000+0  36571-3 0  9994
2 44499  45.0056  65.1287 0005631 206.9473 153.1134 15.67212279385003
ZY-1 02D                
1 44528U 19059A   26198.32337480 -.00000048  00000+0 -11481-5 0  9996
2 44528  98.6711 259.8891 0003060 290.9199  69.1659 14.35268444358662
TAURUS-1 (JINNIUZUO 1)  
1 44530U 19059C   26198.28267500  .00003021  00000+0  48564-3 0  9991
2 44530  98.6437   4.9875 0008149 208.6660 151.4098 14.72379930363070
ZHUHAI-1 03B            
1 44536U 19060C   26198.23653500  .00020426  00000+0  29760-3 0  9998
2 44536  97.5561 357.6674 0008584 198.0209 162.0742 15.55713149380991
ZHUHAI-1 03D            
1 44538U 19060E   26198.29586885  .00020189  00000+0  34344-3 0  9997
2 44538  97.5404 349.5871 0007623 183.3662 176.7540 15.51427699380740
ZHUHAI-1 03E            
1 44539U 19060F   26198.29789137  .00009661  00000+0  22897-3 0  9995
2 44539  97.5651 349.3160 0004411 265.8929  94.1813 15.41964126380407
GAOFEN-7                
1 44703U 19072A   26198.32276053  .00001988  00000+0  92789-4 0  9995
2 44703  97.5701 259.0691 0017073 304.5421  55.4202 15.20928793372228
JILIN-1 GAOFEN 2A       
1 44777U 19075A   26198.29032934  .00007313  00000+0  18514-3 0  9994
2 44777  97.4960 282.7993 0004974 346.4923  13.6188 15.40046242369510
NINGXIA-1 1             
1 44779U 19076A   26198.18107454 -.00000086  00000+0  28176-4 0  9992
2 44779  45.0068  45.8140 0011482 298.3270  61.6405 14.02042219342067
NINGXIA-1 5             
1 44783U 19076E   26198.26458872 -.00000127  00000+0  20479-5 0  9994
2 44783  45.0065  44.7725 0011363 289.4588  70.5018 14.02089729341994
KL-ALPHA A              
1 44785U 19077A   26198.29948140 -.00000048  00000+0 -86115-4 0  9993
2 44785  88.9228 219.2713 0012231  31.4024 328.7858 13.56045678329814
CARTOSAT-3              
1 44804U 19081A   26198.32281799  .00001298  00000+0  64808-4 0  9995
2 44804  97.4288 259.7022 0012850  52.1802 308.0594 15.19190512368045
JILIN-1 GAOFEN 2B       
1 44836U 19086A   26198.28076750  .00003094  00000+0  14237-3 0  9995
2 44836  97.4870 270.0873 0013420 208.0718 151.9796 15.21012513365064
TIANQIN 1 (CAS-6)       
1 44879U 19093A   26198.26494584  .00001465  00000+0  13723-3 0  9996
2 44879  97.7815 281.8894 0009882 320.7589  39.2914 14.95568473356545
ETRSS-1                 
1 44880U 19093B   26198.26289657  .00001836  00000+0  16877-3 0  9996
2 44880  97.7832 282.3734 0009957 320.8431  39.2069 14.96017897356557
TIANYAN 01              
1 44881U 19093C   26198.26761454 -.00000075  00000+0 -24652-5 0  9995
2 44881  97.7521 269.7646 0013404 354.5747   5.5321 14.86560049355883
TIANYAN 02              
1 44882U 19093D   26198.29647023  .00002868  00000+0  20341-3 0  9993
2 44882  97.7934 293.3828 0012372 280.5661  79.4171 15.05542110357148
CBERS 4A                
1 44883U 19093E   26198.28169816  .00000498  00000+0  70463-4 0  9990
2 44883  98.0180 265.7459 0001557 131.0079 229.1269 14.81446213355538
WEILAI 1R               
1 44884U 19093F   26198.25787051  .00002279  00000+0  18363-3 0  9994
2 44884  97.7893 288.1991 0015373 301.1675  58.8041 15.00876650356933
